{
    "links": {
        "self": "http://www.neowsapp.com/rest/v1/neo/3552688?api_key=iIulBulltgU6a56xZRHN4H3l9WmuAYTsLGpBGhQ2"
    },
    "id": "3552688",
    "neo_reference_id": "3552688",
    "name": "(2010 XM)",
    "designation": "2010 XM",
    "nasa_jpl_url": "http://ssd.jpl.nasa.gov/sbdb.cgi?sstr=3552688",
    "absolute_magnitude_h": 24.5,
    "estimated_diameter": {
        "kilometers": {
            "estimated_diameter_min": 0.0334622374,
            "estimated_diameter_max": 0.0748238376
        },
        "meters": {
            "estimated_diameter_min": 33.4622374455,
            "estimated_diameter_max": 74.8238376074
        },
        "miles": {
            "estimated_diameter_min": 0.0207924639,
            "estimated_diameter_max": 0.0464933628
        },
        "feet": {
            "estimated_diameter_min": 109.7842471007,
            "estimated_diameter_max": 245.4850393757
        }
    },
    "is_potentially_hazardous_asteroid": false,
    "close_approach_data": [
        {
            "close_approach_date": "2010-12-08",
            "close_approach_date_full": "2010-Dec-08 22:23",
            "epoch_date_close_approach": 1291846980000,
            "relative_velocity": {
                "kilometers_per_second": "3.0444424732",
                "kilometers_per_hour": "10959.9929036568",
                "miles_per_hour": "6810.1133683861"
            },
            "miss_distance": {
                "astronomical": "0.1937753783",
                "lunar": "75.3786221587",
                "kilometers": "28988383.852124221",
                "miles": "18012546.4728314098"
            },
            "orbiting_body": "Earth"
        }
    ],
    "orbital_data": {
        "orbit_id": "9",
        "orbit_determination_date": "2017-04-06 08:55:28",
        "first_observation_date": "2010-12-01",
        "last_observation_date": "2010-12-12",
        "data_arc_in_days": 11,
        "observations_used": 15,
        "orbit_uncertainty": "9",
        "minimum_orbit_intersection": ".193006",
        "jupiter_tisserand_invariant": "3.767",
        "epoch_osculation": "2455537.5",
        "eccentricity": ".4020892178626062",
        "semi_major_axis": "1.968762303701831",
        "inclination": "3.83003001580727",
        "ascending_node_longitude": "245.6104873971839",
        "orbital_period": "1008.993468052242",
        "perihelion_distance": "1.177144208848979",
        "perihelion_argument": "193.9738071134863",
        "aphelion_distance": "2.760380398554683",
        "perihelion_time": "2455543.534693509142",
        "mean_anomaly": "357.8468744029782",
        "mean_motion": ".3567912096546501",
        "equinox": "J2000",
        "orbit_class": {
            "orbit_class_type": "AMO",
            "orbit_class_description": "Near-Earth asteroid orbits similar to that of 1221 Amor",
            "orbit_class_range": "1.017 AU < q (perihelion) < 1.3 AU"
        }
    },
    "is_sentry_object": false
}